TDRS 3                  
1 19548U 88091B   26164.89471543 -.00000298  00000+0  00000+0 0  9991
2 19548  12.6045 341.0236 0038404 356.0041 198.4347  1.00274232125357
FLTSATCOM 8 (USA 46)    
1 20253U 89077A   26164.92935234 -.00000366  00000+0  00000+0 0  9993
2 20253  12.4227 351.1851 0004525  53.4497 317.7873  1.00279170260533
SKYNET 4C               
1 20776U 90079A   26162.20198485  .00000132  00000+0  00000+0 0  9995
2 20776  13.3423 349.8525 0002401  96.2300 279.5546  1.00274124130837
TDRS 5                  
1 21639U 91054B   26164.72873516  .00000084  00000+0  00000+0 0  9998
2 21639  14.0717 353.8044 0006413 274.5651  88.3161  1.00272741127689
TDRS 6                  
1 22314U 93003B   26164.96099294 -.00000297  00000+0  00000+0 0  9991
2 22314  14.1828 357.0844 0007761 177.9550  27.3827  1.00272565122376
UFO 2 (USA 95)          
1 22787U 93056A   26164.83378244  .00000125  00000+0  00000+0 0  9993
2 22787  11.8937   3.5752 0006019   7.7475 219.6242  1.00275128118513
USA 99 (MILSTAR-1 1)    
1 22988U 94009A   26164.83510830 -.00000101  00000+0  00000+0 0  9999
2 22988  17.6218  27.7409 0001122 215.0934 343.6443  0.98722191 32916
UFO 4 (USA 108)         
1 23467U 95003A   26164.79604821 -.00000021  00000+0  00000+0 0  9997
2 23467   9.6988  13.2436 0003165  62.8852 284.7222  1.00272040114918
TDRS 7                  
1 23613U 95035B   26164.99338700 -.00000237  00000+0  00000+0 0  9996
2 23613  13.3785 348.2137 0011086  77.7784 282.8506  1.00265301113215
USA 115 (MILSTAR-1 2)   
1 23712U 95060A   26165.02821821 -.00000187  00000+0  00000+0 0  9994
2 23712  14.0718   3.7723 0001541 143.2735  30.1777  1.00364698 32856
INMARSAT 3-F1           
1 23839U 96020A   26165.17142235 -.00000138  00000+0  00000+0 0  9998
2 23839  10.5951  46.6635 0003742  46.5817 138.9572  0.99979061110226
INMARSAT 3-F2           
1 24307U 96053A   26164.50682932 -.00000229  00000+0  00000+0 0  9995
2 24307   9.8492  53.9754 0006753  26.7081 156.5264  1.00003798108880
INMARSAT 3-F3           
1 24674U 96070A   26164.80600199  .00000134  00000+0  00000+0 0  9993
2 24674  10.3113  49.6870 0003435  21.5651 167.0726  0.99980849107871
AMC-3                   
1 24936U 97050A   26164.41951209  .00000062  00000+0  00000+0 0  9991
2 24936   8.1549  64.0259 0004044  26.0063 208.7908  0.99060908 52392
USA 134                 
1 25019U 97065A   26165.16743567 -.00000065  00000+0  00000+0 0  9993
2 25019  12.7805  21.7455 0003330 335.6673 213.0855  1.00269228 32928
INMARSAT 3-F5           
1 25153U 98006B   26165.10765750 -.00000290  00000+0  00000+0 0  9990
2 25153   9.6864  53.2900 0004410  26.4623 167.4264  1.00268796103869
ABS-6                   
1 25924U 99053A   26165.14985439  .00000000  00000+0  00000+0 0  9999
2 25924   0.0307  38.9477 0003512  63.2010  13.2528  1.00269139 97812
UFO 10 (USA 146)        
1 25967U 99063A   26164.90000030 -.00000187  00000+0  00000+0 0  9992
2 25967   9.8453  27.2293 0001976  35.1092 140.9434  1.00271838 97313
ASIASTAR                
1 26107U 00016A   26165.14697556 -.00000333  00000+0  00000+0 0  9994
2 26107   9.1225  58.1859 0004380  25.9371 336.2574  1.00270143 95894
USA 149 (DSP 20)        
1 26356U 00024A   26164.80038154  .00000093  00000+0  00000+0 0  9996
2 26356  13.1680  11.8764 0001841 305.0381  67.9257  1.00273213 32880
TDRS 8                  
1 26388U 00034A   26164.67431323 -.00000193  00000+0  00000+0 0  9994
2 26388  12.6783  31.3532 0004760  15.9646 182.0814  1.00267848 95140
NSS-11                  
1 26554U 00059A   26165.15323440  .00000032  00000+0  00000+0 0  9991
2 26554   2.1186  81.4232 0002790 348.3120  63.8853  1.00270495 41265
USA 153                 
1 26575U 00065A   26164.97892156 -.00000325  00000+0  00000+0 0  9991
2 26575  11.6192  35.4488 0003021  46.8874 306.8652  1.00270088 32890
AMC-6                   
1 26580U 00067A   26165.16292778  .00000097  00000+0  00000+0 0  9990
2 26580   0.1447  83.0678 0003441  11.5050  91.5107  1.00272290 93867
USA 157 (MILSTAR-2 2)   
1 26715U 01009A   26164.73220186  .00000110  00000+0  00000+0 0  9999
2 26715  11.5389  19.7856 0039356 177.5877 178.1839  1.00273074 32909
INTELSAT 902 (IS-902)   
1 26900U 01039A   26165.17973992 -.00000280  00000+0  00000+0 0  9996
2 26900   6.1100  71.8210 0004506   7.7564 197.5086  1.00271075 90660
USA 164 (MILSTAR-2 3)   
1 27168U 02001A   26164.74139935  .00000099  00000+0  00000+0 0  9993
2 27168  11.1754  21.9281 0098958   8.3054 157.7242  1.00276159 32922
INTELSAT 904 (IS-904)   
1 27380U 02007A   26165.11207641 -.00000222  00000+0  00000+0 0  9996
2 27380   6.9122  69.2210 0006475   4.0178 198.0362  1.00271184 51733
DIRECTV 5 (TEMPO 1)     
1 27426U 02023A   26165.16786902 -.00000052  00000+0  00000+0 0  9993
2 27426   4.8700  75.3472 0003219  21.4349 116.0182  1.00271429 88098
INTELSAT 905 (IS-905)   
1 27438U 02027A   26164.46836434  .00000100  00000+0  00000+0 0  9991
2 27438   6.7440  69.8438 0003808  20.0607 203.2730  1.00271998 51324
GALAXY 3C (G-3C)        
1 27445U 02030A   26165.17090235 -.00000147  00000+0  00000+0 0  9995
2 27445   3.7235  78.0160 0001537  34.3410 116.7933  1.00271165 46460
